[{"OBJECT_NAME":"OBJECT B","OBJECT_ID":"2022-023B","EPOCH":"2026-03-09T22:47:53.401632","MEAN_MOTION":15.18262382,"ECCENTRICITY":0.00937159,"INCLINATION":63.476,"RA_OF_ASC_NODE":246.6999,"ARG_OF_PERICENTER":346.6129,"MEAN_ANOMALY":13.2499,"EPHEMERIS_TYPE":0,"CLASSIFICATION_TYPE":"U","NORAD_CAT_ID":51947,"ELEMENT_SET_NO":999,"REV_AT_EPOCH":22265,"BSTAR":0.00086643699,"MEAN_MOTION_DOT":0.00019848,"MEAN_MOTION_DDOT":0},{"OBJECT_NAME":"DONGPO 09","OBJECT_ID":"2022-167D","EPOCH":"2026-03-09T22:41:56.215392","MEAN_MOTION":15.33957076,"ECCENTRICITY":0.00036388,"INCLINATION":97.6808,"RA_OF_ASC_NODE":235.7428,"ARG_OF_PERICENTER":115.2371,"MEAN_ANOMALY":244.9249,"EPHEMERIS_TYPE":0,"CLASSIFICATION_TYPE":"U","NORAD_CAT_ID":54685,"ELEMENT_SET_NO":999,"REV_AT_EPOCH":18022,"BSTAR":0.00050563217,"MEAN_MOTION_DOT":0.00016547,"MEAN_MOTION_DDOT":0}]
